[
    {
        "Altitude(m)": 571293.90505713,
        "Argument of Periapsis(deg)": 0.019868973332140504,
        "Eccentricity": 0.0,
        "Inclination(deg)": 53.0,
        "Latitude(deg)": -51.73341966551801,
        "Longitude(deg)": 175.79729887278145,
        "Mean Anomaly(deg)": -78.8161213972672,
        "RAAN(deg)": 349.97043010558406,
        "Satellite Name": "Starlink Shell 1 1555",
        "Satellite Number": 1555,
        "Semi-Major Axis(m)": 6931778.249405717,
        "Time(s)": 570
    },
    {
        "Altitude(m)": 571231.3284299535,
        "Argument of Periapsis(deg)": 0.02021755181165174,
        "Eccentricity": 0.0,
        "Inclination(deg)": 53.0,
        "Latitude(deg)": -51.57368483364886,
        "Longitude(deg)": 176.72689309497332,
        "Mean Anomaly(deg)": -78.1892901937105,
        "RAAN(deg)": 349.9699113355066,
        "Satellite Name": "Starlink Shell 1 1555",
        "Satellite Number": 1555,
        "Semi-Major Axis(m)": 6931778.249405717,
        "Time(s)": 580
    },
    {
        "Altitude(m)": 571165.5149403015,
        "Argument of Periapsis(deg)": 0.020566130291162974,
        "Eccentricity": 0.0,
        "Inclination(deg)": 53.0,
        "Latitude(deg)": -51.405973468665046,
        "Longitude(deg)": 177.6495497138458,
        "Mean Anomaly(deg)": -77.56245899015386,
        "RAAN(deg)": 349.96939256542913,
        "Satellite Name": "Starlink Shell 1 1555",
        "Satellite Number": 1555,
        "Semi-Major Axis(m)": 6931778.249405717,
        "Time(s)": 590
    },
    {
        "Altitude(m)": 571096.4907846822,
        "Argument of Periapsis(deg)": 0.020914708770674213,
        "Eccentricity": 0.0,
        "Inclination(deg)": 53.0,
        "Latitude(deg)": -51.23039007303065,
        "Longitude(deg)": 178.56502931669766,
        "Mean Anomaly(deg)": -76.93562778659711,
        "RAAN(deg)": 349.96887379535167,
        "Satellite Name": "Starlink Shell 1 1555",
        "Satellite Number": 1555,
        "Semi-Major Axis(m)": 6931778.249405717,
        "Time(s)": 600
    },
    {
        "Altitude(m)": 571024.2834322302,
        "Argument of Periapsis(deg)": 0.021263287250185448,
        "Eccentricity": 0.0,
        "Inclination(deg)": 53.0,
        "Latitude(deg)": -51.047042142401224,
        "Longitude(deg)": 179.47310866895077,
        "Mean Anomaly(deg)": -76.3087965830404,
        "RAAN(deg)": 349.96835502527415,
        "Satellite Name": "Starlink Shell 1 1555",
        "Satellite Number": 1555,
        "Semi-Major Axis(m)": 6931778.249405717,
        "Time(s)": 610
    },
    {
        "Altitude(m)": 570948.9216128021,
        "Argument of Periapsis(deg)": 0.021611865729696686,
        "Eccentricity": 0.0,
        "Inclination(deg)": 53.0,
        "Latitude(deg)": -50.856039885561415,
        "Longitude(deg)": -179.6264187540102,
        "Mean Anomaly(deg)": -75.68196537948373,
        "RAAN(deg)": 349.9678362551967,
        "Satellite Name": "Starlink Shell 1 1555",
        "Satellite Number": 1555,
        "Semi-Major Axis(m)": 6931778.249405717,
        "Time(s)": 620
    },
    {
        "Altitude(m)": 570870.4353044992,
        "Argument of Periapsis(deg)": 0.02196044420920792,
        "Eccentricity": 0.0,
        "Inclination(deg)": 53.0,
        "Latitude(deg)": -50.65749594708435,
        "Longitude(deg)": -178.7337439873404,
        "Mean Anomaly(deg)": -75.05513417592702,
        "RAAN(deg)": 349.9673174851192,
        "Satellite Name": "Starlink Shell 1 1555",
        "Satellite Number": 1555,
        "Semi-Major Axis(m)": 6931778.249405717,
        "Time(s)": 630
    },
    {
        "Altitude(m)": 570788.8557206793,
        "Argument of Periapsis(deg)": 0.02230902268871916,
        "Eccentricity": 0.0,
        "Inclination(deg)": 53.0,
        "Latitude(deg)": -50.45152513401609,
        "Longitude(deg)": -177.8490413429332,
        "Mean Anomaly(deg)": -74.42830297237022,
        "RAAN(deg)": 349.96679871504176,
        "Satellite Name": "Starlink Shell 1 1555",
        "Satellite Number": 1555,
        "Semi-Major Axis(m)": 6931778.249405717,
        "Time(s)": 640
    },
    {
        "Altitude(m)": 570704.215296368,
        "Argument of Periapsis(deg)": 0.022657601168230398,
        "Eccentricity": 0.0,
        "Inclination(deg)": 53.0,
        "Latitude(deg)": -50.23824414776665,
        "Longitude(deg)": -176.97246975968483,
        "Mean Anomaly(deg)": -73.80147176881353,
        "RAAN(deg)": 349.9662799449643,
        "Satellite Name": "Starlink Shell 1 1555",
        "Satellite Number": 1555,
        "Semi-Major Axis(m)": 6931778.249405717,
        "Time(s)": 650
    },
    {
        "Altitude(m)": 570616.547674183,
        "Argument of Periapsis(deg)": 0.023006179647741636,
        "Eccentricity": 0.0,
        "Inclination(deg)": 53.0,
        "Latitude(deg)": -50.01777132229041,
        "Longitude(deg)": -176.10417253060626,
        "Mean Anomaly(deg)": -73.17464056525682,
        "RAAN(deg)": 349.9657611748868,
        "Satellite Name": "Starlink Shell 1 1555",
        "Satellite Number": 1555,
        "Semi-Major Axis(m)": 6931778.249405717,
        "Time(s)": 660
    },
    {
        "Altitude(m)": 570525.8876897097,
        "Argument of Periapsis(deg)": 0.023354758127252868,
        "Eccentricity": 0.0,
        "Inclination(deg)": 53.0,
        "Latitude(deg)": -49.79022636951458,
        "Longitude(deg)": -175.2442770827921,
        "Mean Anomaly(deg)": -72.54780936170009,
        "RAAN(deg)": 349.9652424048093,
        "Satellite Name": "Starlink Shell 1 1555",
        "Satellite Number": 1555,
        "Semi-Major Axis(m)": 6931778.249405717,
        "Time(s)": 670
    },
    {
        "Altitude(m)": 570432.2713563539,
        "Argument of Periapsis(deg)": 0.023703336606764106,
        "Eccentricity": 0.0,
        "Inclination(deg)": 53.0,
        "Latitude(deg)": -49.55573013285789,
        "Longitude(deg)": -174.39289631805661,
        "Mean Anomaly(deg)": -71.92097815814334,
        "RAAN(deg)": 349.9647236347319,
        "Satellite Name": "Starlink Shell 1 1555",
        "Satellite Number": 1555,
        "Semi-Major Axis(m)": 6931778.249405717,
        "Time(s)": 680
    },
    {
        "Altitude(m)": 570335.7358496574,
        "Argument of Periapsis(deg)": 0.024051915086275345,
        "Eccentricity": 0.0,
        "Inclination(deg)": 53.0,
        "Latitude(deg)": -49.31440434957421,
        "Longitude(deg)": -173.55012848338865,
        "Mean Anomaly(deg)": -71.29414695458665,
        "RAAN(deg)": 349.9642048646544,
        "Satellite Name": "Starlink Shell 1 1555",
        "Satellite Number": 1555,
        "Semi-Major Axis(m)": 6931778.249405717,
        "Time(s)": 690
    },
    {
        "Altitude(m)": 570236.3194911387,
        "Argument of Periapsis(deg)": 0.024400493565786583,
        "Eccentricity": 0.0,
        "Inclination(deg)": 53.0,
        "Latitude(deg)": -49.066371422534964,
        "Longitude(deg)": -172.7160570790263,
        "Mean Anomaly(deg)": -70.66731575103,
        "RAAN(deg)": 349.96368609457693,
        "Satellite Name": "Starlink Shell 1 1555",
        "Satellite Number": 1555,
        "Semi-Major Axis(m)": 6931778.249405717,
        "Time(s)": 700
    },
    {
        "Altitude(m)": 570134.061731591,
        "Argument of Periapsis(deg)": 0.024749072045297815,
        "Eccentricity": 0.0,
        "Inclination(deg)": 53.0,
        "Latitude(deg)": -48.81175420195394,
        "Longitude(deg)": -171.89075231202844,
        "Mean Anomaly(deg)": -70.04048454747326,
        "RAAN(deg)": 349.96316732449947,
        "Satellite Name": "Starlink Shell 1 1555",
        "Satellite Number": 1555,
        "Semi-Major Axis(m)": 6931778.249405717,
        "Time(s)": 710
    },
    {
        "Altitude(m)": 570029.0031338886,
        "Argument of Periapsis(deg)": 0.025097650524809053,
        "Eccentricity": 0.0,
        "Inclination(deg)": 53.0,
        "Latitude(deg)": -48.55067577746086,
        "Longitude(deg)": -171.07427106472758,
        "Mean Anomaly(deg)": -69.41365334391651,
        "RAAN(deg)": 349.962648554422,
        "Satellite Name": "Starlink Shell 1 1555",
        "Satellite Number": 1555,
        "Semi-Major Axis(m)": 6931778.249405717,
        "Time(s)": 720
    },
    {
        "Altitude(m)": 569921.1853553077,
        "Argument of Periapsis(deg)": 0.02544622900432029,
        "Eccentricity": 0.0,
        "Inclination(deg)": 53.0,
        "Latitude(deg)": -48.283259280821554,
        "Longitude(deg)": -170.26665688623632,
        "Mean Anomaly(deg)": -68.78682214035982,
        "RAAN(deg)": 349.9621297843445,
        "Satellite Name": "Starlink Shell 1 1555",
        "Satellite Number": 1555,
        "Semi-Major Axis(m)": 6931778.249405717,
        "Time(s)": 730
    },
    {
        "Altitude(m)": 569810.6511293654,
        "Argument of Periapsis(deg)": 0.02579480748383153,
        "Eccentricity": 0.0,
        "Inclination(deg)": 53.0,
        "Latitude(deg)": -48.00962769950838,
        "Longitude(deg)": -169.46794151538086,
        "Mean Anomaly(deg)": -68.15999093680317,
        "RAAN(deg)": 349.961611014267,
        "Satellite Name": "Starlink Shell 1 1555",
        "Satellite Number": 1555,
        "Semi-Major Axis(m)": 6931778.249405717,
        "Time(s)": 740
    },
    {
        "Altitude(m)": 569697.4442471552,
        "Argument of Periapsis(deg)": 0.026143385963342765,
        "Eccentricity": 0.0,
        "Inclination(deg)": 53.0,
        "Latitude(deg)": -47.729903701244844,
        "Longitude(deg)": -168.67814490504904,
        "Mean Anomaly(deg)": -67.53315973324632,
        "RAAN(deg)": 349.96109224418956,
        "Satellite Name": "Starlink Shell 1 1555",
        "Satellite Number": 1555,
        "Semi-Major Axis(m)": 6931778.249405717,
        "Time(s)": 750
    }
]